{"type": "FeatureCollection", "features": [ {"type": "Feature", "properties": {"norad_id": 42741, "name": "EUTELSAT 172B", "group": "eutelsat", "lat": 0.003181861418562527, "lon": 37.10047783514982, "alt_km": 35787.0307955823, "timestamp": "2025-12-09T09:46:47.318628+00:00", "meta": {"OBJECT_NAME": "EUTELSAT 172B", "OBJECT_ID": "2017-029B", "EPOCH": "2025-12-09T02:24:13.275360", "MEAN_MOTION": 1.00270381, "ECCENTRICITY": 1.54e-05, "INCLINATION": 0.0113, "RA_OF_ASC_NODE": 92.4681, "ARG_OF_PERICENTER": 154.1334, "MEAN_ANOMALY": 39.5583, "EPHEMERIS_TYPE": 0, "CLASSIFICATION_TYPE": "U", "NORAD_CAT_ID": 42741, "ELEMENT_SET_NO": 999, "REV_AT_EPOCH": 3182, "BSTAR": 0, "MEAN_MOTION_DOT": -4e-08, "MEAN_MOTION_DDOT": 0}, "tle": {"line1": "1 42741U 17029B   25343.10015365 -.00000004  00000+0  00000+0 0  9998", "line2": "2 42741   0.0113  92.4681 0000154 154.1334  39.5583  1.00270381 31825"}}, "geometry": {"type": "Point", "coordinates": [37.10047783514982, 0.003181861418562527]}}, {"type": "Feature", "properties": {"norad_id": 44334, "name": "EUTELSAT 7C", "group": "eutelsat", "lat": 0.034833314115684744, "lon": -127.93259301553793, "alt_km": 35772.242126360106, "timestamp": "2025-12-09T09:46:47.318640+00:00", "meta": {"OBJECT_NAME": "EUTELSAT 7C", "OBJECT_ID": "2019-034B", "EPOCH": "2025-12-09T03:20:00.432096", "MEAN_MOTION": 1.00270641, "ECCENTRICITY": 0.0003397, "INCLINATION": 0.0734, "RA_OF_ASC_NODE": 180.1669, "ARG_OF_PERICENTER": 62.1617, "MEAN_ANOMALY": 252.7903, "EPHEMERIS_TYPE": 0, "CLASSIFICATION_TYPE": "U", "NORAD_CAT_ID": 44334, "ELEMENT_SET_NO": 999, "REV_AT_EPOCH": 493, "BSTAR": 0, "MEAN_MOTION_DOT": 5e-07, "MEAN_MOTION_DDOT": 0}, "tle": {"line1": "1 44334U 19034B   25343.13889389  .00000050  00000+0  00000+0 0  9994", "line2": "2 44334   0.0734 180.1669 0003397  62.1617 252.7903  1.00270641  4935"}}, "geometry": {"type": "Point", "coordinates": [-127.93259301553793, 0.034833314115684744]}}, {"type": "Feature", "properties": {"norad_id": 44624, "name": "EUTELSAT 5 WEST B", "group": "eutelsat", "lat": -0.07278623416272419, "lon": -139.93355236052125, "alt_km": 35774.65402292267, "timestamp": "2025-12-09T09:46:47.318685+00:00", "meta": {"OBJECT_NAME": "EUTELSAT 5 WEST B", "OBJECT_ID": "2019-067A", "EPOCH": "2025-12-08T22:08:22.438752", "MEAN_MOTION": 1.00270995, "ECCENTRICITY": 0.00035282, "INCLINATION": 0.0644, "RA_OF_ASC_NODE": 340.9663, "ARG_OF_PERICENTER": 277.8642, "MEAN_ANOMALY": 146.1846, "EPHEMERIS_TYPE": 0, "CLASSIFICATION_TYPE": "U", "NORAD_CAT_ID": 44624, "ELEMENT_SET_NO": 999, "REV_AT_EPOCH": 2252, "BSTAR": 0, "MEAN_MOTION_DOT": -4e-07, "MEAN_MOTION_DDOT": 0}, "tle": {"line1": "1 44624U 19067A   25342.92248193 -.00000040  00000+0  00000+0 0  9990", "line2": "2 44624   0.0644 340.9663 0003528 277.8642 146.1846  1.00270995 22525"}}, "geometry": {"type": "Point", "coordinates": [-139.93355236052125, -0.07278623416272419]}}, {"type": "Feature", "properties": {"norad_id": 45027, "name": "EUTELSAT KONNECT", "group": "eutelsat", "lat": 0.025832004683500547, "lon": -127.73016244786709, "alt_km": 35782.34949894487, "timestamp": "2025-12-09T09:46:47.318708+00:00", "meta": {"OBJECT_NAME": "EUTELSAT KONNECT", "OBJECT_ID": "2020-005B", "EPOCH": "2025-12-09T03:20:07.920384", "MEAN_MOTION": 1.00268789, "ECCENTRICITY": 0.0001779, "INCLINATION": 0.0699, "RA_OF_ASC_NODE": 96.7799, "ARG_OF_PERICENTER": 188.4492, "MEAN_ANOMALY": 210.1344, "EPHEMERIS_TYPE": 0, "CLASSIFICATION_TYPE": "U", "NORAD_CAT_ID": 45027, "ELEMENT_SET_NO": 999, "REV_AT_EPOCH": 2243, "BSTAR": 0, "MEAN_MOTION_DOT": 5.1e-07, "MEAN_MOTION_DDOT": 0}, "tle": {"line1": "1 45027U 20005B   25343.13898056  .00000051  00000+0  00000+0 0  9996", "line2": "2 45027   0.0699  96.7799 0001779 188.4492 210.1344  1.00268789 22438"}}, "geometry": {"type": "Point", "coordinates": [-127.73016244786709, 0.025832004683500547]}}, {"type": "Feature", "properties": {"norad_id": 49056, "name": "EUTELSAT QUANTUM", "group": "eutelsat", "lat": -0.030834592694013584, "lon": -87.21187741669767, "alt_km": 35770.95865058237, "timestamp": "2025-12-09T09:46:47.318729+00:00", "meta": {"OBJECT_NAME": "EUTELSAT QUANTUM", "OBJECT_ID": "2021-069B", "EPOCH": "2025-12-08T22:01:38.706240", "MEAN_MOTION": 1.00269257, "ECCENTRICITY": 0.00037286, "INCLINATION": 0.0122, "RA_OF_ASC_NODE": 10.7312, "ARG_OF_PERICENTER": 261.56, "MEAN_ANOMALY": 183.7356, "EPHEMERIS_TYPE": 0, "CLASSIFICATION_TYPE": "U", "NORAD_CAT_ID": 49056, "ELEMENT_SET_NO": 999, "REV_AT_EPOCH": 1602, "BSTAR": 0, "MEAN_MOTION_DOT": 1.28e-06, "MEAN_MOTION_DDOT": 0}, "tle": {"line1": "1 49056U 21069B   25342.91780910  .00000128  00000+0  00000+0 0  9992", "line2": "2 49056   0.0122  10.7312 0003728 261.5600 183.7356  1.00269257 16029"}}, "geometry": {"type": "Point", "coordinates": [-87.21187741669767, -0.030834592694013584]}}, {"type": "Feature", "properties": {"norad_id": 53765, "name": "EUTELSAT KONNECT VHTS", "group": "eutelsat", "lat": 0.027926870904670865, "lon": -132.20620569305595, "alt_km": 35775.48890154286, "timestamp": "2025-12-09T09:46:47.318749+00:00", "meta": {"OBJECT_NAME": "EUTELSAT KONNECT VHTS", "OBJECT_ID": "2022-110A", "EPOCH": "2025-12-09T03:18:45.550080", "MEAN_MOTION": 1.00270735, "ECCENTRICITY": 0.0002616, "INCLINATION": 0.0631, "RA_OF_ASC_NODE": 102.664, "ARG_OF_PERICENTER": 135.7295, "MEAN_ANOMALY": 252.1373, "EPHEMERIS_TYPE": 0, "CLASSIFICATION_TYPE": "U", "NORAD_CAT_ID": 53765, "ELEMENT_SET_NO": 999, "REV_AT_EPOCH": 492, "BSTAR": 0, "MEAN_MOTION_DOT": 1.9e-07, "MEAN_MOTION_DDOT": 0}, "tle": {"line1": "1 53765U 22110A   25343.13802720  .00000019  00000+0  00000+0 0  9990", "line2": "2 53765   0.0631 102.6640 0002616 135.7295 252.1373  1.00270735  4927"}}, "geometry": {"type": "Point", "coordinates": [-132.20620569305595, 0.027926870904670865]}}, {"type": "Feature", "properties": {"norad_id": 54048, "name": "EUTELSAT HOTBIRD 13F", "group": "eutelsat", "lat": -0.05536672038384859, "lon": -121.91219320497387, "alt_km": 35789.83378815849, "timestamp": "2025-12-09T09:46:47.318762+00:00", "meta": {"OBJECT_NAME": "EUTELSAT HOTBIRD 13F", "OBJECT_ID": "2022-134A", "EPOCH": "2025-12-08T15:22:42.049344", "MEAN_MOTION": 1.00271424, "ECCENTRICITY": 0.0002045, "INCLINATION": 0.0486, "RA_OF_ASC_NODE": 292.2851, "ARG_OF_PERICENTER": 61.4058, "MEAN_ANOMALY": 327.6443, "EPHEMERIS_TYPE": 0, "CLASSIFICATION_TYPE": "U", "NORAD_CAT_ID": 54048, "ELEMENT_SET_NO": 999, "REV_AT_EPOCH": 1146, "BSTAR": 0, "MEAN_MOTION_DOT": 8.9e-07, "MEAN_MOTION_DDOT": 0}, "tle": {"line1": "1 54048U 22134A   25342.64076446  .00000089  00000+0  00000+0 0  9991", "line2": "2 54048   0.0486 292.2851 0002045  61.4058 327.6443  1.00271424 11467"}}, "geometry": {"type": "Point", "coordinates": [-121.91219320497387, -0.05536672038384859]}}, {"type": "Feature", "properties": {"norad_id": 54225, "name": "EUTELSAT HOTBIRD 13G", "group": "eutelsat", "lat": -0.019058085210992674, "lon": -121.89772012895283, "alt_km": 35781.38408516015, "timestamp": "2025-12-09T09:46:47.318775+00:00", "meta": {"OBJECT_NAME": "EUTELSAT HOTBIRD 13G", "OBJECT_ID": "2022-146A", "EPOCH": "2025-12-08T15:22:42.049344", "MEAN_MOTION": 1.00270657, "ECCENTRICITY": 0.0001883, "INCLINATION": 0.0488, "RA_OF_ASC_NODE": 235.9302, "ARG_OF_PERICENTER": 310.6832, "MEAN_ANOMALY": 134.7005, "EPHEMERIS_TYPE": 0, "CLASSIFICATION_TYPE": "U", "NORAD_CAT_ID": 54225, "ELEMENT_SET_NO": 999, "REV_AT_EPOCH": 555, "BSTAR": 0, "MEAN_MOTION_DOT": 8.9e-07, "MEAN_MOTION_DDOT": 0}, "tle": {"line1": "1 54225U 22146A   25342.64076446  .00000089  00000+0  00000+0 0  9991", "line2": "2 54225   0.0488 235.9302 0001883 310.6832 134.7005  1.00270657  5550"}}, "geometry": {"type": "Point", "coordinates": [-121.89772012895283, -0.019058085210992674]}}, {"type": "Feature", "properties": {"norad_id": 54259, "name": "EUTELSAT 10B", "group": "eutelsat", "lat": 0.020126683591670715, "lon": -124.92871859260782, "alt_km": 35784.9340167538, "timestamp": "2025-12-09T09:46:47.318787+00:00", "meta": {"OBJECT_NAME": "EUTELSAT 10B", "OBJECT_ID": "2022-157A", "EPOCH": "2025-12-08T21:44:38.781888", "MEAN_MOTION": 1.00268802, "ECCENTRICITY": 8.508e-05, "INCLINATION": 0.0629, "RA_OF_ASC_NODE": 99.3292, "ARG_OF_PERICENTER": 78.5911, "MEAN_ANOMALY": 236.1215, "EPHEMERIS_TYPE": 0, "CLASSIFICATION_TYPE": "U", "NORAD_CAT_ID": 54259, "ELEMENT_SET_NO": 999, "REV_AT_EPOCH": 1111, "BSTAR": 0, "MEAN_MOTION_DOT": 7e-07, "MEAN_MOTION_DDOT": 0}, "tle": {"line1": "1 54259U 22157A   25342.90600442  .00000070  00000+0  00000+0 0  9998", "line2": "2 54259   0.0629  99.3292 0000850  78.5911 236.1215  1.00268802 11113"}}, "geometry": {"type": "Point", "coordinates": [-124.92871859260782, 0.020126683591670715]}}, {"type": "Feature", "properties": {"norad_id": 59346, "name": "EUTELSAT 36D", "group": "eutelsat", "lat": -0.018395098739354597, "lon": -99.04857752671131, "alt_km": 35785.66129871164, "timestamp": "2025-12-09T09:46:47.318799+00:00", "meta": {"OBJECT_NAME": "EUTELSAT 36D", "OBJECT_ID": "2024-059A", "EPOCH": "2025-12-08T22:20:06.315360", "MEAN_MOTION": 1.00269127, "ECCENTRICITY": 3.953e-05, "INCLINATION": 0.001, "RA_OF_ASC_NODE": 17.2851, "ARG_OF_PERICENTER": 292.2542, "MEAN_ANOMALY": 139.2824, "EPHEMERIS_TYPE": 0, "CLASSIFICATION_TYPE": "U", "NORAD_CAT_ID": 59346, "ELEMENT_SET_NO": 999, "REV_AT_EPOCH": 624, "BSTAR": 0, "MEAN_MOTION_DOT": 1.58e-06, "MEAN_MOTION_DDOT": 0}, "tle": {"line1": "1 59346U 24059A   25342.93062865  .00000158  00000+0  00000+0 0  9994", "line2": "2 59346   0.0010  17.2851 0000395 292.2542 139.2824  1.00269127  6246"}}, "geometry": {"type": "Point", "coordinates": [-99.04857752671131, -0.018395098739354597]}}]}